satname,norad_id,inclination_deg,eccentricity,mean_motion_rev_per_day,perigee_km,apogee_km,l1,l2
STARLINK-1454,45671,53.0508,0.0008015,15.47901936,417.41362884919454,428.31563446473956,1 45671U 20035Q   26054.17251724  .00076902  00000+0  14449-2 0  9996,2 45671  53.0508 122.4506 0008015   2.1436 357.9604 15.47901936316667
STARLINK-1456,45673,53.049,0.0001392,15.49134096,418.3116738156268,420.2040685477632,1 45673U 20035S   26054.91667824  .00041148  00000+0  74851-3 0  9990,2 45673  53.0490 112.3745 0001392  90.0360 110.9136 15.49134096  5888
STARLINK-1457,45674,53.0472,0.0009826,15.74855583,338.4359723120742,351.6483640133465,1 45674U 20035T   26054.27754824  .00108871  00000+0  71515-3 0  9998,2 45674  53.0472  94.3890 0009826  12.7465 347.3800 15.74855583317054
STARLINK-1458,45675,53.0517,0.000529,15.41110396,439.22264255838036,446.43922663318244,1 45675U 20035U   26054.67963316  .00059437  00000+0  14126-2 0  9998,2 45675  53.0517 121.9313 0005290  28.0885 332.0403 15.41110396316698
STARLINK-1460,45676,53.0917,0.000171,15.15706834,517.6541245043,520.0128884175092,1 45676U 20035V   26054.91667824  .00013064  00000+0  69251-3 0  9997,2 45676  53.0917 128.2108 0001710  85.9528 129.9904 15.15706834  5798
STARLINK-1392,45677,53.0918,0.0001156,15.15387845,519.0039452670508,520.5987486128624,1 45677U 20035W   26054.91667824  .00913498  00000+0  44229-1 0  9994,2 45677  53.0918 128.3017 0001156  89.5848  16.6078 15.15387845  5790
STARLINK-1394,45679,53.0502,0.0001454,15.47373507,423.4238169332375,425.4019984463939,1 45679U 20035Y   26054.91667824  .00055270  00000+0  10641-2 0  9993,2 45679  53.0502 102.5063 0001454  82.9611 179.7168 15.47373507  5732
STARLINK-1402,45685,53.0498,0.0001413,15.4261748,437.4244692477323,439.3508191121764,1 45685U 20035AE  26054.79898072  .00052016  00000+0  11784-2 0  9991,2 45685  53.0498  89.4111 0001413 242.2624 117.8238 15.42617480317205
STARLINK-1404,45686,53.1599,0.0001255,15.30204889,474.34037793273,476.06056563814764,1 45686U 20035AF  26054.45724768  .00002265  00000+0  88555-4 0  9998,2 45686  53.1599 115.8070 0001255  89.7990 270.3155 15.30204889316799
STARLINK-1413,45689,53.1613,0.0001234,15.30205384,474.3532921512942,476.04469547456847,1 45689U 20035AJ  26054.33292223  .00000283  00000+0  21673-4 0  9990,2 45689  53.1613 116.2638 0001234  97.2615 262.8526 15.30205384316697
STARLINK-1417,45693,53.0503,0.0003165,15.1166266,528.9422918052696,533.3158572304401,1 45693U 20035AN  26054.58521727  .00022661  00000+0  13300-2 0  9996,2 45693  53.0503 118.1908 0003165 195.3078 164.7818 15.11662660316763
STARLINK-1420,45695,53.0539,0.000325,15.48512608,418.86673940095716,423.2862281654152,1 45695U 20035AQ  26054.57330975  .00039196  00000+0  72914-3 0  9998,2 45695  53.0539  90.3304 0003250  48.4138 311.7148 15.48512608317166
STARLINK-1422,45696,53.1588,0.0001346,15.3019049,474.32099970164654,476.1659297227461,1 45696U 20035AR  26053.55652861 -.00000362  00000+0 -10577-6 0  9992,2 45696  53.1588 119.8727 0001346  95.9526 264.1628 15.30190490316659
STARLINK-1351,45697,53.0534,0.0002042,15.4973681,416.10768844438644,418.8830246988109,1 45697U 20035AS  26054.79932432  .00023482  00000+0  42257-3 0  9998,2 45697  53.0534  88.3587 0002042  64.7584 295.3635 15.49736810317215
STARLINK-1398,45699,53.04,0.0005038,15.86775162,307.9608187429121,314.7011266722129,1 45699U 20035AU  26054.91667824  .00151144  00000+0  57100-3 0  9994,2 45699  53.0400   9.4251 0005038  82.8141 111.0665 15.86775162  6035
STARLINK-1400,45700,53.0523,0.000668,15.47694128,418.92992000717004,428.0168714958927,1 45700U 20035AV  26054.55827207  .00066885  00000+0  12690-2 0  9991,2 45700  53.0523  90.6660 0006680  37.3070 322.8399 15.47694128317153
STARLINK-1403,45701,53.0539,0.0001561,15.06388946,546.1643848649555,548.3264892618081,1 45701U 20035AW  26054.80804331  .00001588  00000+0  12549-3 0  9996,2 45701  53.0539  98.9379 0001561  82.9161 277.2005 15.06388946317058
STARLINK-1407,45703,53.0364,0.0012212,15.56581506,389.2847991356648,405.8337597285499,1 45703U 20035AY  26054.33018580  .00051642  00000+0  71364-3 0  9995,2 45703  53.0364  25.5289 0012212  49.5062 310.7011 15.56581506318059
STARLINK-1411,45706,53.0454,0.0005356,15.59061081,386.7479865670093,393.99841469392504,1 45706U 20035BB  26054.28327027  .00097914  00000+0  12235-2 0  9994,2 45706  53.0454  51.6693 0005356  64.5162 295.6404 15.59061081317678
STARLINK-1423,45710,53.0524,0.0005853,15.49815098,413.28915338800107,421.2438527286813,1 45710U 20035BF  26054.80427259  .00081947  00000+0  14393-2 0  9991,2 45710  53.0524  88.7670 0005853  46.2671 313.8821 15.49815098317198
STARLINK-1433,45711,53.0515,0.000631,15.51910215,406.8651118580574,415.433190981149,1 45711U 20035BG  26054.78306977  .00082672  00000+0  13476-2 0  9999,2 45711  53.0515  88.1175 0006310  43.2533 316.8970 15.51910215317206
STARLINK-1434,45712,53.0543,0.0004069,15.25141839,487.5647602909239,493.1543427845654,1 45712U 20035BH  26054.28983505  .00038764  00000+0  15319-2 0  9994,2 45712  53.0543  86.6457 0004069  32.6059 327.5189 15.25141839317196
STARLINK-1465,45731,53.0532,0.0003672,15.47609824,421.2227572973288,426.2180413713995,1 45731U 20038B   26054.38258912  .00032751  00000+0  63053-3 0  9995,2 45731  53.0532 291.6697 0003672 163.1165 196.9965 15.47609824314167
STARLINK-1471,45735,53.0462,0.0002867,15.4798204,420.6802270988037,424.57978690061736,1 45735U 20038F   26054.44653770  .00030824  00000+0  58651-3 0  9994,2 45735  53.0462 210.2131 0002867 166.7168 193.3915 15.47982040315329
STARLINK-1480,45741,53.0514,0.0009897,15.45902388,421.99111931520383,435.46462764577154,1 45741U 20038M   26054.06416226  .00067686  00000+0  13645-2 0  9991,2 45741  53.0514 287.0982 0009897 131.1761 229.0101 15.45902388314211
STARLINK-1500,45744,53.0368,0.0003366,15.33884572,461.93248718600717,466.53877244039813,1 45744U 20038Q   26054.28198399  .00026708  00000+0  81175-3 0  9990,2 45744  53.0368 260.2879 0003366 169.8620 190.2450 15.33884572314606
STARLINK-1504,45746,53.023,0.0002828,15.52105799,408.6589361368724,412.4986337848459,1 45746U 20038S   26054.71843429  .00036357  00000+0  59650-3 0  9995,2 45746  53.0230 209.5339 0002828 149.4610 210.6564 15.52105799315341
STARLINK-1506,45747,53.0773,0.0003491,15.25683432,486.33676039503644,491.131209716802,1 45747U 20038T   26054.83970100  .00008059  00000+0  32522-3 0  9993,2 45747  53.0773 266.3966 0003491 172.5781 187.5269 15.25683432314577
STARLINK-1464,45751,53.053,0.0003891,15.42422662,436.3090799172669,441.6141460578938,1 45751U 20038X   26054.31812290  .00027954  00000+0  64367-3 0  9993,2 45751  53.0530 272.8670 0003891 160.4906 199.6248 15.42422662314437
STARLINK-1477,45754,53.0507,0.0001861,15.13437114,524.4426217496266,527.0122400908149,1 45754U 20038AA  26054.63712315  .00019823  00000+0  11101-2 0  9991,2 45754  53.0507 276.7872 0001861  88.2368 271.8837 15.13437114314405
STARLINK-1478,45755,53.0554,0.0006569,15.52079495,406.19592852091955,415.115044089428,1 45755U 20038AB  26054.60825839  .00078433  00000+0  12717-2 0  9991,2 45755  53.0554 265.8073 0006569 155.1355 204.9971 15.52079495314548
STARLINK-1484,45756,53.0013,0.000653,15.92539247,290.8221680857523,299.53751988399654,1 45756U 20038AC  26054.91667824  .00257424  36132-4  74442-3 0  9997,2 45756  53.0013 127.5286 0006530   2.5523 208.9854 15.92539247  6002
STARLINK-1493,45759,53.0523,0.0002001,15.45044186,429.88568543387464,432.610801408292,1 45759U 20038AF  26054.82594016  .00057953  00000+0  12077-2 0  9992,2 45759  53.0523 270.8115 0002001 167.9333 192.1721 15.45044186314491
STARLINK-1494,45760,53.0488,0.0002194,15.70832864,355.03787492008996,357.9930404185143,1 45760U 20038AG  26054.83002124  .00088121  00000+0  69135-3 0  9998,2 45760  53.0488 220.3735 0002194 290.7573  69.3209 15.70832864315218
STARLINK-1502,45764,53.053,0.0001354,15.44886759,430.7887753371815,432.6328821292027,1 45764U 20038AL  26054.59239898  .00027612  00000+0  58546-3 0  9997,2 45764  53.0530 273.2622 0001354  93.9616 266.1544 15.44886759314457
STARLINK-1470,45772,53.045,0.000219,15.26522047,484.7155234375805,487.7221112855841,1 45772U 20038AU  26054.80118858  .00040617  00000+0  15392-2 0  9993,2 45772  53.0450 238.7119 0002190 138.5315 221.5849 15.26522047314950
STARLINK-1482,45773,53.1596,0.0001047,15.30203063,474.4883788645602,475.9234688728184,1 45773U 20038AV  26054.83425732  .00003558  00000+0  13217-3 0  9997,2 45773  53.1596 255.3722 0001047  89.2870 270.8251 15.30203063314724
STARLINK-1496,45780,53.0532,0.0006993,15.45385423,425.4847162128226,435.00692042252194,1 45780U 20038BC  26054.55551223  .00068711  00000+0  14108-2 0  9990,2 45780  53.0532 245.3057 0006993 152.0072 208.1311 15.45385423314828
STARLINK-1513,45786,53.1586,0.0001013,15.30216599,474.4712687012461,475.85974778941636,1 45786U 20038BJ  26054.84377526  .00009650  00000+0  33734-3 0  9994,2 45786  53.1586 255.4616 0001013  87.1506 272.9611 15.30216599314727
STARLINK-1522,46027,53.0564,0.0001295,15.06397923,546.3210901888369,548.1147571140618,1 46027U 20055A   26054.76287302  .00002786  00000+0  20586-3 0  9999,2 46027  53.0564 189.1359 0001295  94.2661 265.8476 15.06397923306782
STARLINK-1523,46028,53.055,0.0001236,15.06406132,546.3367935463302,548.0487350640669,1 46028U 20055B   26054.77761443  .00000371  00000+0  43796-4 0  9991,2 46028  53.0550 189.0720 0001236  90.2614 269.8517 15.06406132306804
STARLINK-1526,46029,53.0552,0.0001126,15.0640214,546.4252056451542,547.9847926633638,1 46029U 20055C   26054.37216643  .00001869  00000+0  14433-3 0  9993,2 46029  53.0552 190.8907 0001126 109.0755 251.0356 15.06402140306738
STARLINK-1555,46032,53.056,0.0001583,15.06402289,546.1082609256619,548.3008240580148,1 46032U 20055F   26054.35742728  .00000726  00000+0  67660-4 0  9995,2 46032  53.0560 190.9575 0001583  99.9438 260.1730 15.06402289306736
